satNo,name,line1,line2,inclination,apogee,raan,argument_of_perigee,eccentricity,mean_motion,hdbscan_labels
44538,ZHUHAI-1 03D,1 44538U 19060E   26027.34144510  .00039124  00000-0  94193-3 0  9997,2 44538  97.5195 171.9403 0009814  98.3920 261.8439 15.41124514354328,97.5195,456.62033436899634,171.9403,98.392,0.0009814,15.41124514,263
44539,ZHUHAI-1 03E,1 44539U 19060F   26027.29811823  .00031913  00000-0  92992-3 0  9993,2 44539  97.5401 173.1022 0006883 163.8225 196.3239 15.35301020354107,97.5401,471.87023663353176,173.1022,163.8225,0.0006883,15.3530102,263
44622,GAOFEN 10R,1 44622U 19066A   26027.27280837  .00002807  00000-0  35217-3 0  9992,2 44622  98.0333 339.9775 0005441 240.3964 119.6707 14.82990048341498,98.0333,630.8465006724363,339.9775,240.3964,0.0005441,14.82990048,66
44628,ICON,1 44628U 19068A   26026.99692262  .00007259  00000-0  47101-3 0  9998,2 44628  26.9835 245.7744 0014253  81.6363 278.5813 15.05845044344724,26.9835,565.9230647636056,245.7744,81.6363,0.0014253,15.05845044,-1
44703,GAOFEN 7,1 44703U 19072A   26027.45051993  .00001250  00000-0  58415-4 0  9995,2 44703  97.2636  94.0704 0014068 163.8092 196.3597 15.21495075346243,97.2636,518.1452824232653,94.0704,163.8092,0.0014068,15.21495075,279
44714,STARLINK-1008,1 44714U 19074B   26027.33335648  .00903420  00000-0  30613-1 0  9995,2 44714  53.1431  11.0898 0001361  77.0132  11.4041 15.27637390  5792,53.1431,490.9480391537575,11.0898,77.0132,0.0001361,15.2763739,408
44718,STARLINK-1012,1 44718U 19074F   26027.33335648 -.00618934  00000-0 -22156-1 0  9997,2 44718  53.1604  10.9065 0001945  85.7676 223.2614 15.30541603  5591,53.1604,482.6650727773644,10.9065,85.7676,0.0001945,15.30541603,408
44723,STARLINK-1017,1 44723U 19074L   26027.24871695  .00041587  00000-0  18631-2 0  9996,2 44723  53.0468   2.1480 0001268 108.7073 251.4060 15.20866931342655,53.0468,511.23389907596635,2.148,108.7073,0.0001268,15.20866931,-1
44724,STARLINK-1019,1 44724U 19074M   26027.33335648  .00192396  00000-0  16369-2 0  9991,2 44724  53.0494 342.7740 0011007  53.1622  87.4801 15.68414029  5950,53.0494,377.99532822567505,342.774,53.1622,0.0011007,15.68414029,-1
44725,STARLINK-1020,1 44725U 19074N   26027.28420042  .00001570  00000-0  12423-3 0  9990,2 44725  53.0545  32.4948 0001319  91.4675 268.6465 15.06405398342223,53.0545,555.2454651877647,32.4948,91.4675,0.0001319,15.06405398,407
44736,STARLINK-1031,1 44736U 19074Z   26027.33335648  .00267314  00000-0  18107-2 0  9999,2 44736  53.0487 328.2061 0007353  86.3542 340.0025 15.73661214  5916,53.0487,360.5266077985866,328.2061,86.3542,0.0007353,15.73661214,-1
44741,STARLINK-1036,1 44741U 19074AE  26027.25608049  .00130625  00000-0  25384-2 0  9993,2 44741  53.0551  27.7872 0002130  79.4337 280.6910 15.46690017342298,53.0551,435.00318380653954,27.7872,79.4337,0.000213,15.46690017,-1
44744,STARLINK-1039,1 44744U 19074AH  26027.31751846  .00060458  00000-0  29246-2 0  9994,2 44744  53.0504  44.7320 0004450  57.0130 303.1291 15.18036887342062,53.0504,521.9772151831696,44.732,57.013,0.000445,15.18036887,-1
44747,STARLINK-1042,1 44747U 19074AL  26026.77106099  .00029483  00000-0  56940-3 0  9995,2 44747  53.0452 295.5714 0003801  72.4913 287.6509 15.47572786343579,53.0452,433.5513518772172,295.5714,72.4913,0.0003801,15.47572786,-1
44748,STARLINK-1043,1 44748U 19074AM  26027.32167797  .00046050  00000-0  79294-3 0  9996,2 44748  53.0527  33.6557 0002644  20.4514 339.6600 15.50640057342225,53.0527,423.7891995589938,33.6557,20.4514,0.0002644,15.50640057,407
44751,STARLINK-1046,1 44751U 19074AQ  26027.32018898  .00105910  00000-0  26620-2 0  9992,2 44751  53.0561  46.9178 0003857  45.7706 314.3614 15.39140625342030,53.0561,458.4193727559438,46.9178,45.7706,0.0003857,15.39140625,608
44752,STARLINK-1047,1 44752U 19074AR  26027.13770092  .00017067  00000-0  56289-3 0  9993,2 44752  53.0719 339.9684 0004819  87.7499 272.4053 15.31553620342976,53.0719,481.6140652606236,339.9684,87.7499,0.0004819,15.3155362,-1
44753,STARLINK-1048,1 44753U 19074AS  26027.33335648  .00170274  00000-0  37717-2 0  9994,2 44753  53.0548   7.0892 0003644  74.3916  98.5487 15.42660466  5795,53.0548,447.8819114117259,7.0892,74.3916,0.0003644,15.42660466,-1
44758,STARLINK-1053,1 44758U 19074AX  26025.74248328  .00158251  00000-0  98288-3 0  9992,2 44758  53.0337 299.9440 0003239 113.8646 246.2712 15.76020060343409,53.0337,351.0436128514567,299.944,113.8646,0.0003239,15.7602006,-1
44768,STARLINK-1063,1 44768U 19074BH  26027.33335648  .00841278  00000-0  29107-1 0  9992,2 44768  53.1465  51.4376 0001410  76.3589 263.8499 15.27124287  5796,53.1465,492.51862372083406,51.4376,76.3589,0.000141,15.27124287,844
44771,STARLINK-1067,1 44771U 19074BL  26027.33335648  .00121418  00000-0  23642-2 0  9992,2 44771  53.0551  43.3616 0005248  60.2293 115.3431 15.46664991  5877,53.0551,437.19828327942827,43.3616,60.2293,0.0005248,15.46664991,-1
44772,STARLINK-1068,1 44772U 19074BM  26027.26560636  .00158713  00000-0  24274-2 0  9992,2 44772  53.0531  21.2620 0001981  86.3336 273.7900 15.53353361342387,53.0531,415.424558014784,21.262,86.3336,0.0001981,15.53353361,-1
44777,JILIN-01 GAOFEN 2A,1 44777U 19075A   26027.27366863  .00022252  00000-0  65814-3 0  9999,2 44777  97.5082 108.1631 0006150 221.0830 138.9951 15.34910656343231,97.5082,472.52906734481826,108.1631,221.083,0.000615,15.34910656,-1
44804,CARTOSAT 3,1 44804U 19081A   26027.27446190  .00004094  00000-0  19758-3 0  9999,2 44804  97.4514  91.2627 0012237 289.6583  70.3331 15.19176895342070,97.4514,523.8908930672119,91.2627,289.6583,0.0012237,15.19176895,357
44819,GAOFEN 12,1 44819U 19082A   26027.29033723  .00000908  00000-0  12465-3 0  9990,2 44819  97.8131  37.3787 0004037  98.7755 261.3915 14.80724564333240,97.8131,637.0029601374799,37.3787,98.7755,0.0004037,14.80724564,294
44836,JILIN-01 GAOFEN 2B,1 44836U 19086A   26027.25099951  .00010754  00000-0  51862-3 0  9998,2 44836  97.5050 100.2162 0016051  91.6219 268.6854 15.18766475339088,97.505,527.7599565090164,100.2162,91.6219,0.0016051,15.18766475,284
44857,RISAT-2BR1,1 44857U 19089F   26026.90282049  .00009666  00000-0  74255-3 0  9998,2 44857  36.9586 229.7348 0013633 106.4596 253.7645 15.01209588335955,36.9586,579.7653172766314,229.7348,106.4596,0.0013633,15.01209588,273
44859,IHOPSAT-TD,1 44859U 19089H   26026.50827214  .00005856  00000-0  34978-3 0  9990,2 44859  36.9656 171.8565 0004770 159.0956 200.9985 15.10845818336548,36.9656,544.0530974570438,171.8565,159.0956,0.000477,15.10845818,246
44873,CSG-1,1 44873U 19092A   26027.29188744  .00001177  00000-0  15444-3 0  9994,2 44873  97.8827 212.9345 0001246  84.7422 275.3933 14.82149990330606,97.8827,630.5551512282304,212.9345,84.7422,0.0001246,14.8214999,210
44876,ANGELS,1 44876U 19092D   26027.09999227  .00118924  00000-0  10291-2 0  9994,2 44876  97.4284 239.2871 0004680  12.0635 348.0738 15.68794854340087,97.4284,372.63836736659147,239.2871,12.0635,0.000468,15.68794854,47
44883,CBERS 4A,1 44883U 19093E   26027.27935475  .00001934  00000-0  25189-3 0  9993,2 44883  97.7677  98.9484 0000634 345.2366  14.8829 14.81706645330219,97.7677,631.5231890813205,98.9484,345.2366,6.34e-05,14.81706645,313
44925,STARLINK-1112,1 44925U 20001M   26027.33335648  .00211074  00000-0  10320-2 0  9992,2 44925  53.0405  92.7547 0001816 316.1160 292.6717 15.81183103  5999,53.0405,335.44847424246,92.7547,316.116,0.0001816,15.81183103,-1
44927,STARLINK-1114,1 44927U 20001P   26027.33335648  .00137990  00000-0  30375-2 0  9990,2 44927  53.0527 166.8093 0002596 328.5318  88.3497 15.42992290  5664,53.0527,446.19000957137627,166.8093,328.5318,0.0002596,15.4299229,-1
44930,STARLINK-1123,1 44930U 20001S   26026.72578338  .00001440  00000-0  11554-3 0  9990,2 44930  53.0558 175.0025 0000873  71.4547 288.6537 15.06409538333520,53.0558,554.9239058733546,175.0025,71.4547,8.73e-05,15.06409538,1400
44941,STARLINK-1094,1 44941U 20001AD  26027.33335648  .00919837  00000-0  33609-1 0  9996,2 44941  53.1364 151.5949 0001454 100.1773 262.6521 15.25082775  5745,53.1364,498.6725927836504,151.5949,100.1773,0.0001454,15.25082775,-1
44949,STARLINK-1122,1 44949U 20001AM  26027.33335648  .00896957  00000-0  32823-1 0  9998,2 44949  53.1372 151.5831 0001249 100.1077 148.1833 15.25097374  5791,53.1372,498.48794582082706,151.5831,100.1077,0.0001249,15.25097374,-1
44961,STARLINK-1080,1 44961U 20001AZ  26027.33335648  .00081070  00000-0  18775-2 0  9995,2 44961  53.0535 124.8883 0005346 340.0816  80.3365 15.41748014  5859,53.0535,451.73266518613787,124.8883,340.0816,0.0005346,15.41748014,903
44968,STARLINK-1090,1 44968U 20001BG  26026.56360397 -.00000914  00000-0 -42427-4 0  9998,2 44968  53.0504 135.7300 0001983  96.7376 263.3838 15.06401789334068,53.0504,555.71637044812,135.73,96.7376,0.0001983,15.06401789,-1
45016,JILIN-01 KUANFU 01,1 45016U 20003A   26027.23315895  .00006464  00000-0  39858-3 0  9990,2 45016  97.5177 103.9369 0009370  78.2872 281.9408 15.10243539334058,97.5177,549.0716917897286,103.9369,78.2872,0.000937,15.10243539,-1
45024,YINHE-1,1 45024U 20004A   26027.27703352  .00001662  00000-0  22150-3 0  9995,2 45024  86.3974 178.8035 0015011 127.6975 232.5610 14.78929963325097,86.3974,650.3647309146924,178.8035,127.6975,0.0015011,14.78929963,-1
45044,STARLINK-1132,1 45044U 20006A   26026.55599155  .00067384  00000-0  18283-2 0  9997,2 45044  53.1596  92.7989 0002103  65.7289 294.3934 15.37012167330435,53.1596,463.5243254373977,92.7989,65.7289,0.0002103,15.37012167,-1
45047,STARLINK-1131,1 45047U 20006D   26027.33335648  .01723674  00000-0  81262-1 0  9990,2 45047  53.0950 112.6331 0000742  97.9816 210.4578 15.15881368  5743,53.095,525.9528146692021,112.6331,97.9816,7.42e-05,15.15881368,1057
45048,STARLINK-1134,1 45048U 20006E   26027.31799018  .00095154  00000-0  24954-2 0  9994,2 45048  53.0357  74.2800 0004845  56.1086 304.0377 15.37889625330761,53.0357,462.79732806377115,74.28,56.1086,0.0004845,15.37889625,605
